CATNR 37849
1 37849U 11061A   26022.50498765  .00000208  00000-0  11976-3 0  9993
2 37849  98.7820 324.4892 0002275  50.8149 309.3229 14.19528284737775
